IRIDIUM 39              
1 25042U 97069D   26016.73773640  .00000452  00000+0  11243-3 0  9990
2 25042  86.3933 119.6243 0016039 317.6928  42.3038 14.49565499479891
IRIDIUM 38              
1 25043U 97069E   26016.76229174  .00000402  00000+0  12569-3 0  9999
2 25043  86.4000 143.3841 0003925 106.3378 253.8252 14.38354994476650
IRIDIUM 42              
1 25077U 97077A   26016.89258239  .00000216  00000+0  66716-4 0  9990
2 25077  86.4005 149.7618 0002678 106.6116 253.5376 14.36566616471878
IRIDIUM 44              
1 25078U 97077B   26016.75597217  .00000262  00000+0  76092-4 0  9997
2 25078  86.3993 131.1818 0003617  72.1550 288.0043 14.40465682474440
IRIDIUM 45              
1 25104U 97082A   26016.73993579  .00019426  00000+0  52200-3 0  9998
2 25104  86.3558 303.3997 0090441 245.0890 114.0942 15.33629366484639
IRIDIUM 24              
1 25105U 97082B   26016.93690254  .00000367  00000+0  10489-3 0  9992
2 25105  86.3928 349.6162 0013556  91.1133 269.1621 14.42367943474027
IRIDIUM 51              
1 25262U 98018A   26016.72403994  .00128928  00000+0  96324-3 0  9992
2 25262  86.3722 308.1684 0047359 129.0303 231.5198 15.70772056480127
IRIDIUM 57              
1 25273U 98019B   26016.95991832  .00000283  00000+0  90380-4 0  9993
2 25273  86.3923  55.6107 0002331  92.3410 267.8053 14.36079554455463
